SL-8 R/B                
1 21088U 91006B   26078.74104723  .00000083  00000+0  67550-4 0  9993
2 21088  82.9458 162.5736 0022460  10.8624 150.5114 13.77495539765459
OKEAN-3                 
1 21397U 91039A   26078.78607957  .00001839  00000+0  12794-3 0  9992
2 21397  82.5190 327.0636 0012900 299.3062  60.6876 15.04870089866554
COSMOS 2151             
1 21422U 91042A   26078.82216615  .00001716  00000+0  13518-3 0  9996
2 21422  82.4933  73.8988 0013315  32.5008 327.7033 15.00145630864712
SL-14 R/B               
1 21423U 91042B   26078.81905414  .00000432  00000+0  51606-4 0  9993
2 21423  82.4941 210.6846 0016445 203.3406 156.7063 14.81839767854578
ERS-1                   
1 21574U 91050A   26078.28983173  .00000249  00000+0  94123-4 0  9995
2 21574  98.7875  96.7655 0032160 171.8813 188.2901 14.39456317817114
ARIANE 40 R/B           
1 21610U 91050F   26078.73401531  .00000227  00000+0  80428-4 0  9998
2 21610  98.1991 130.5926 0004025  59.2133 300.9453 14.42900485820448
INTERCOSMOS 25          
1 21819U 91086A   26078.64629116  .00001520  00000+0  29058-3 0  9997
2 21819  82.6036 303.9901 1486828  95.4818 281.7071 12.12033886497892
SL-8 R/B                
1 21876U 92008B   26078.27019344  .00000007  00000+0 -90161-5 0  9995
2 21876  82.9223 260.6493 0035862 107.4005  64.9002 13.75969672710737
SL-8 R/B                
1 21938U 92020B   26078.67662461  .00000053  00000+0  39806-4 0  9994
2 21938  82.9321 146.3473 0027543 269.5872 246.2146 13.75550179702500
USA 81                  
1 21949U 92023A   26078.22930274  .00000166  00000+0  54022-4 0  9992
2 21949  85.0066 125.9370 0002188  70.8196 289.3234 14.32370993 96152
COSMOS 2219             
1 22219U 92076A   26078.84874705 -.00000141  00000+0 -49414-4 0  9999
2 22219  71.0640 356.8331 0018388 192.7984 167.2674 14.14093207719813
SL-16 R/B               
1 22220U 92076B   26078.74341110  .00000274  00000+0  16022-3 0  9992
2 22220  71.0006 167.1976 0010620  77.7650  93.8870 14.16860856723251
COSMOS 2221             
1 22236U 92080A   26078.26764611  .00001805  00000+0  15742-3 0  9995
2 22236  82.5001 269.9038 0014862 155.4729 204.7203 14.96238202782220
SL-16 R/B               
1 22285U 92093B   26078.84533844  .00000239  00000+0  14669-3 0  9996
2 22285  71.0238 342.9485 0006297 283.4207  76.6213 14.15448524714596
COSMOS 2228             
1 22286U 92094A   26078.81227660  .00002220  00000+0  18911-3 0  9997
2 22286  82.5170 227.6174 0016607 267.7808  92.1513 14.97240479777573
SL-16 R/B               
1 22566U 93016B   26078.74539016 -.00000266  00000+0 -11182-3 0  9999
2 22566  71.0082 194.0623 0012307 301.0467  58.9447 14.15307490703595
COSMOS 2242             
1 22626U 93024A   26078.86567624  .00001795  00000+0  15511-3 0  9990
2 22626  82.5152 256.9802 0014933 271.5176  88.4336 14.96589883781913
